STARLINK-1857           
1 47144U 20088Y   24225.70145808  .00019007  00000+0  12901-2 0  9997
2 47144  53.0553 338.3485 0001412  91.2373 268.8778 15.06439805205600
STARLINK-1860           
1 47147U 20088AB  24225.91667824  .00173121  00000+0  10026-1 0  9993
2 47147  53.0510 356.5439 0007333 330.0504  54.4346 15.10962501205626
STARLINK-1861           
1 47148U 20088AC  24225.63417837  .00049554  00000+0  33152-2 0  9998
2 47148  53.0555 348.6534 0001307  90.8324 269.2814 15.06480253205709
STARLINK-1862           
1 47149U 20088AD  24225.66274761  .00037460  00000+0  25190-2 0  9995
2 47149  53.0562 358.5243 0001013  63.9372 296.1721 15.06420789206056
STARLINK-1863           
1 47150U 20088AE  24225.72264216  .00086788  00000+0  57582-2 0  9995
2 47150  53.0563 348.2550 0001478  69.7718 290.3429 15.06502437205476
STARLINK-1864           
1 47151U 20088AF  24225.78807122  .00049080  00000+0  32896-2 0  9996
2 47151  53.0557 357.9615 0001748  96.3503 263.7685 15.06415512205337
STARLINK-1866           
1 47152U 20088AG  24225.77237456  .00080417  00000+0  53408-2 0  9994
2 47152  53.0555 358.0235 0001412  84.0029 276.1121 15.06508605205330
STARLINK-1867           
1 47153U 20088AH  24225.77102627  .00073673  00000+0  48989-2 0  9990
2 47153  53.0555   3.2790 0001121  67.8254 292.2853 15.06510165205269
STARLINK-1869           
1 47155U 20088AK  24225.77977117  .00067000  00000+0  44639-2 0  9991
2 47155  53.0555   8.0009 0001297  92.6699 267.4438 15.06486753205190
STARLINK-1871           
1 47157U 20088AM  24225.75119721  .00076824  00000+0  51063-2 0  9993
2 47157  53.0562 358.1263 0001321  89.9266 270.1874 15.06503454205337
STARLINK-1873           
1 47158U 20088AN  24225.77424771  .00039025  00000+0  26212-2 0  9990
2 47158  53.0555 348.0230 0001398  84.0696 276.0453 15.06443936205470
STARLINK-1876           
1 47161U 20088AR  24225.67472386  .00076564  00000+0  50867-2 0  9990
2 47161  53.0547 348.4732 0001309  88.2055 271.9083 15.06521961205460
STARLINK-1877           
1 47162U 20088AS  24225.73646704  .00044739  00000+0  29995-2 0  9992
2 47162  53.0559 358.1935 0001308  88.0013 272.1126 15.06448242205335
STARLINK-1878           
1 47163U 20088AT  24225.76872729  .00021242  00000+0  14397-2 0  9998
2 47163  53.0538   8.0503 0001662  85.9617 274.1561 15.06423580205191
STARLINK-1879           
1 47164U 20088AU  24225.35866184  .00013641  00000+0  93274-3 0  9998
2 47164  53.0561 339.8893 0001167  78.1642 281.9478 15.06404977205807
STARLINK-1880           
1 47165U 20088AV  24225.76226156  .00021506  00000+0  14561-2 0  9993
2 47165  53.0543 358.0791 0001828  89.8190 270.3008 15.06454420205336
STARLINK-1884           
1 47167U 20088AX  24225.81388900  .00110479  00000+0  73050-2 0  9993
2 47167  53.0547 357.8451 0001274  95.0635 265.0499 15.06479048205349
STARLINK-1887           
1 47170U 20088BA  24225.40106508  .00003828  00000+0  27578-3 0  9998
2 47170  53.0582 359.6997 0001740 107.9393 252.1786 15.06393086205285
STARLINK-1888           
1 47171U 20088BB  24225.75213666  .00030063  00000+0  20266-2 0  9998
2 47171  53.0550 348.1259 0001347  87.5141 272.6002 15.06435291205476
STARLINK-1890           
1 47173U 20088BD  24225.67748733  .00076811  00000+0  51071-2 0  9998
2 47173  53.0555 358.4563 0001253  87.7974 272.3158 15.06491437205324
STARLINK-1891           
1 47174U 20088BE  24225.75488284  .00076198  00000+0  50653-2 0  9993
2 47174  53.0558 358.1103 0001279  86.7302 273.3833 15.06503272205330
STARLINK-1895           
1 47175U 20088BF  24225.62037167  .00050611  00000+0  33904-2 0  9992
2 47175  53.0549 338.7171 0001657  84.6099 275.5079 15.06420627205596
STARLINK-1907           
1 47177U 20088BH  24225.73737307  .00100459  00000+0  66446-2 0  9992
2 47177  53.0558 348.1911 0001497  80.5070 279.6088 15.06529216205477
STARLINK-1912           
1 47178U 20088BJ  24225.78437923  .00029688  00000+0  20018-2 0  9998
2 47178  53.0562 357.9779 0000929  79.0532 281.0562 15.06432839205331
STARLINK-1913           
1 47179U 20088BK  24225.77240104  .00068639  00000+0  45699-2 0  9992
2 47179  53.0557   8.0312 0001182  79.4849 280.6273 15.06500592205190
STARLINK-2017           
1 47351U 21005C   24225.87927509  .00043071  00000+0  28923-2 0  9990
2 47351  53.0542  77.5406 0001408 104.7086 255.4059 15.06406322197779
STARLINK-2034           
1 47352U 21005D   24225.96501493  .00107625  00000+0  71350-2 0  9999
2 47352  53.0525 117.1686 0001290  73.6296 286.4835 15.06399138196566
STARLINK-2045           
1 47353U 21005E   24225.85395507  .00015474  00000+0  10550-2 0  9990
2 47353  53.0557  62.6658 0003018  88.9899 271.1435 15.06413297197328
STARLINK-2046           
1 47354U 21005F   24225.32140486  .00009702  00000+0  66892-3 0  9995
2 47354  53.0544  85.6022 0003245  76.4245 283.7105 15.06422412196954
STARLINK-2047           
1 47355U 21005G   24225.82219586  .00041918  00000+0  28143-2 0  9990
2 47355  53.0547  67.8149 0002283  74.7129 285.4112 15.06426215197248
STARLINK-2049           
1 47356U 21005H   24225.93458598  .00052178  00000+0  34959-2 0  9993
2 47356  53.0542  87.3078 0001217  65.6519 294.4597 15.06401259196988
STARLINK-2050           
1 47357U 21005J   24225.91713544  .00085651  00000+0  56975-2 0  9991
2 47357  53.0533 117.8075 0001394  57.5872 302.5251 15.06413903196553
STARLINK-2055           
1 47358U 21005K   24225.87835739  .00051743  00000+0  34658-2 0  9997
2 47358  53.0534  87.5478 0001280 109.2911 250.8217 15.06415458196978
STARLINK-2069           
1 47359U 21005L   24225.95530994  .00020832  00000+0  13949-2 0  9997
2 47359  53.0539 112.2015 0001716 147.0239 213.0858 15.06886767196634
STARLINK-2070           
1 47360U 21005M   24225.62238086  .02412226  73560-2  22371-2 0  9997
2 47360  53.0345  13.9766 0014235 298.9648 166.7649 16.13174279197989
STARLINK-2071           
1 47361U 21005N   24225.88667903  .00053977  00000+0  36145-2 0  9992
2 47361  53.0540  87.5205 0001420  69.3275 290.7866 15.06404877196978
STARLINK-2076           
1 47362U 21005P   24225.93182356 -.00002478  00000+0 -14753-3 0  9997
2 47362  53.0522 117.3156 0001266  68.2336 291.8788 15.06397076196562
STARLINK-2077           
1 47363U 21005Q   24225.93550490  .00109850  00000+0  72797-2 0  9997
2 47363  53.0534 117.3025 0001167  78.9174 281.1947 15.06399748196566
STARLINK-2081           
1 47366U 21005T   24225.96133010  .00060905  00000+0  40683-2 0  9994
2 47366  53.0528 117.1860 0003688  75.6303 284.5095 15.06435369196566
STARLINK-2082           
1 47367U 21005U   24225.92077768  .00020624  00000+0  13987-2 0  9999
2 47367  53.0540 117.3664 0001623  92.8894 267.2281 15.06418212196561
STARLINK-2084           
1 47368U 21005V   24225.91340782  .00011530  00000+0  79178-3 0  9999
2 47368  53.0543 117.3977 0001516  59.5093 300.6046 15.06395668196564
STARLINK-2086           
1 47370U 21005X   24225.87653754  .00045604  00000+0  30605-2 0  9993
2 47370  53.0545  77.5625 0001356  69.8321 290.2814 15.06403236197127
STARLINK-2088           
1 47371U 21005Y   24225.72911753 -.00001017  00000+0 -49390-4 0  9999
2 47371  53.0532 118.2245 0001368  89.8123 270.3022 15.06377917196530
STARLINK-2089           
1 47372U 21005Z   24225.92311670  .00002509  00000+0  18728-3 0  9999
2 47372  53.0530 112.6731 0001411  78.4872 281.6275 15.06405006196627
STARLINK-2092           
1 47373U 21005AA  24225.92445932  .00010143  00000+0  69872-3 0  9998
2 47373  53.0528 117.3489 0001490 120.4705 239.6431 15.06406334196562
STARLINK-2093           
1 47374U 21005AB  24225.94288835  .00009939  00000+0  68609-3 0  9996
2 47374  53.0516 117.2382 0002241  36.4541 323.6600 15.06352569196562
STARLINK-2094           
1 47375U 21005AC  24225.88393343  .00030553  00000+0  20631-2 0  9999
2 47375  53.0527 117.5336 0001226  70.4392 289.6729 15.06364659196556
STARLINK-2096           
1 47376U 21005AD  24225.95393389  .00106565  00000+0  70633-2 0  9992
2 47376  53.0527 117.2184 0001820 113.6873 246.4308 15.06413081196568
STARLINK-2097           
1 47377U 21005AE  24225.93921702 -.00001210  00000+0 -62381-4 0  9993
2 47377  53.0557 117.2832 0001489  66.9549 293.1597 15.06372797196560
STARLINK-2098           
1 47378U 21005AF  24225.86547223  .00010691  00000+0  73527-3 0  9992
2 47378  53.0542  77.6098 0001432 110.3797 249.7346 15.06414618197115
STARLINK-2099           
1 47379U 21005AG  24225.87190154  .00017244  00000+0  11731-2 0  9990
2 47379  53.0544  77.5727 0001619 105.7084 254.4084 15.06420377197111
STARLINK-2100           
1 47380U 21005AH  24225.90141466  .00064131  00000+0  42826-2 0  9994
2 47380  53.0542  87.4552 0001434 131.7538 228.3573 15.06423261196987
STARLINK-2101           
1 47381U 21005AJ  24225.91756344  .00057896  00000+0  38711-2 0  9991
2 47381  53.0543  92.4673 0000901  76.5357 283.5733 15.06426918196918
STARLINK-2102           
1 47382U 21005AK  24225.89404647  .00054089  00000+0  36220-2 0  9999
2 47382  53.0540  87.4854 0001182  59.7991 300.3114 15.06403583196970
STARLINK-2103           
1 47383U 21005AL  24225.87288438  .00052007  00000+0  34843-2 0  9993
2 47383  53.0539  77.8598 0001362 112.6066 247.5067 15.06403951197114
STARLINK-2104           
1 47384U 21005AM  24225.87935761  .00039946  00000+0  26845-2 0  9992
2 47384  53.0535  87.7970 0001909  82.7064 277.4142 15.06412934196977
STARLINK-2105           
1 47385U 21005AN  24225.87560600  .00022891  00000+0  15498-2 0  9992
2 47385  53.0536  87.5710 0001400 105.6447 254.4696 15.06420982196976
STARLINK-2106           
1 47386U 21005AP  24225.63971376  .00011397  00000+0  78257-3 0  9995
2 47386  53.0548  88.6272 0001781  85.7101 274.4091 15.06408333197565
STARLINK-2108           
1 47387U 21005AQ  24225.91667824  .00858925  00000+0  36636-1 0  9996
2 47387  53.0546 116.9856 0001232  90.9550 254.9187 15.19990968  5790
